    CJ95O010  1997 03 29.4726  0.927845  0.994910  130.7572  283.2662   89.0337  20190228  -2.0  4.0  C/1995 O1 (Hale-Bopp)                                    MPC106342
    PJ96R020  2019 02 11.4510  2.590277  0.313484  333.2859   40.0510    2.6009  20190228  11.5  4.0  P/1996 R2 (Lagerkvist)                                   NK_1615
    PJ97B010  2022 03 28.5993  2.050619  0.760287  183.4168  328.9282   12.3464  20190228  15.0  2.0  P/1997 B1 (Kobayashi)                                    MPC_30063
    PJ98V24S  2018 01 18.6860  3.438127  0.241587  244.8745  159.0392    5.0225  20190228  13.0  2.0  P/1998 VS24 (LINEAR)                                     MPC_75703
    PJ99D010  2012 12 17.2642  1.654194  0.712909  174.1106  348.7796   21.3169  20190228  15.0  4.0  P/1999 D1 (Hermann)                                      NK_1780
    PJ99R010  2019 08 31.4643  0.050638  0.979823   56.6324  351.8226   11.4542  20190228  27.0  6.0  P/1999 R1 (SOHO)                                         CCO_17
    PJ99R28O  2019 06 26.0148  1.124501  0.671818  231.2745  137.8855    7.5648  20190228  20.0  2.0  P/1999 RO28 (LONEOS)                                     NK_ 731
    PJ99XC0N  2017 06 12.1806  3.297613  0.210990  161.9938  285.2968    5.0297  20190228  13.5  2.0  P/1999 XN120 (Catalina)                                  MPC_75704
    PK00R020  2019 06 17.2897  1.623415  0.531437  176.4548  160.3121   11.6832  20190228  18.0  4.0  P/2000 R2 (LINEAR)                                       NK_ 744
    PK00S040  2019 09 26.5824  2.265521  0.681588  173.0732  173.7994   28.3748  20190228  17.5  2.0  P/2000 S4 (LINEAR-Spacewatch)                            MPC_73461
    PK01B50B  2014 09  3.1556  2.371815  0.586695  193.6566  351.2011   10.3559  20190228  13.0  4.0  P/2001 BB50 (LINEAR-NEAT)                                MPC_75704
    PK01H050  2015 10 21.4714  2.440982  0.599635  224.8416  328.6979    8.3740  20190228  12.0  4.0  P/2001 H5 (NEAT)                                         MPC_43019
    PK01Q060  2024 03  1.2705  1.408745  0.822585   43.0353   22.0374   56.8704  20190228  13.5  4.0  P/2001 Q6 (NEAT)                                         MPC_75704
    PK02E57J  2018 06 18.6271  2.627498  0.593404  167.0474  330.4288    4.9766  20190228  12.5  4.0  P/2002 EJ57 (LINEAR)                                     MPC_47727
    PK02T050  2021 12 16.6861  3.935498  0.437197  326.8915  123.1000   30.8574  20190228   8.0  4.0  P/2002 T5 (LINEAR)                                       MPC109588
    PK02T060  2024 07 26.7383  3.372239  0.559247  219.0147  207.2371   10.8567  20190228  10.5  4.0  P/2002 T6 (NEAT-LINEAR)                                  MPC109588
    CK02V94Q  2006 01 31.2247  6.829476  0.963949  100.2132   34.9124   70.4600  20190228   9.5  2.0  C/2002 VQ94 (LINEAR)                                     MPC_75007
    PK03F020  2019 11 11.8756  2.970149  0.542211  191.8002  359.0938   11.6047  20190228  16.5  2.0  P/2003 F2 (NEAT)                                         MPC_50354
    PK03L010  2020 07  9.9644  5.017671  0.253127  354.8361  226.0644    9.0206  20190228   8.5  4.0  P/2003 L1 (Scotti)                                       MPC_75704
    PK03Q29X  2025 08  5.1472  4.246898  0.472171   37.1867  264.6071   11.3900  20190228   8.5  4.0  P/2003 QX29 (NEAT)                                       MPC_50139
    PK03T120  2020 05  6.5948  0.593856  0.770385  219.5974  174.7982   11.0336  20190228  17.0  4.0  P/2003 T12 (SOHO)                                        MPC_99268
    PK03U030  2014 10 15.3935  2.480035  0.509312  356.8317  347.9850    7.0106  20190228  13.5  4.0  P/2003 U3 (NEAT)                                         MPC_75705
    PK04A010  2027 01 23.5495  5.476783  0.310425   21.6849  124.8745   10.5546  20190228   6.5  4.0  P/2004 A1 (LONEOS)                                       MPC_82312
    PK04D29O  2024 06  3.3842  4.059730  0.442240   40.7628  147.4335   14.5316  20190228  13.5  2.0  P/2004 DO29 (Spacewatch-LINEAR)                          MPC_54558
    PK04FE0Y  2015 07 27.2760  4.065777  0.169745  242.3911  326.7771    2.1357  20190228  12.5  2.0  P/2004 FY140 (LINEAR)                                    MPC_54823
    PK04R030  2021 10  9.4033  3.510516  0.260417   40.6427  305.7345   12.7830  20190228  14.5  4.0  P/2004 R3 (LINEAR-NEAT)                                  MPC_53304
    PK04V030  2023 11 22.3433  3.962486  0.445762  322.2032  356.0981   50.3919  20190228  11.5  4.0  P/2004 V3 (Siding Spring)                                MPC_55521
    PK04V050  2027 08 20.2814  4.425327  0.444369   88.0184   47.7204   19.3527  20190228   8.0  4.0  P/2004 V5 (LINEAR-Hill)                                  MPC_75705
    PK04W09R  2020 04  1.6707  1.949780  0.682720   72.0306   24.8876    4.9303  20190228  14.5  4.0  P/2004 WR9 (LINEAR)                                      MPC_75705
    PK05E010  2023 09 29.7620  4.388370  0.375917  194.2247  335.6230    4.2646  20190228  10.0  4.0  P/2005 E1 (Tubbiolo)                                     MPC_54164
    PK05G08F  2019 09 29.2493  2.830952  0.516502  285.3851  314.9067    1.1923  20190228  12.5  4.0  P/2005 GF8 (LONEOS)                                      MPEC_2018-X49
    PK05J010  2018 10 12.8725  1.533404  0.570299  338.9145  268.7959   31.7696  20190228  16.5  4.0  P/2005 J1 (McNaught)                                     MPC_79019
    PK05JA8D  2022 01  2.7760  4.064172  0.375604   89.9947  223.8093    3.2818  20190228  10.0  4.0  P/2005 JD108 (Catalina-NEAT)                             MPC_75705
    PK05L010  2021 11  1.9934  3.146826  0.208959  149.5034  138.2389    7.7367  20190228   9.5  4.0  P/2005 L1 (McNaught)                                     MPC_74246
    CK05L030  2008 01 10.9362  5.616822  0.998487   47.2106  288.7742  139.5546  20190228   4.0  4.0  C/2005 L3 (McNaught)                                     MPC_87062
    PK05S020  2029 01 30.9984  6.449729  0.195748  229.4850  161.1721    3.1354  20190228   7.5  4.0  P/2005 S2 (Skiff)                                        MPC_75706
    PK05SL6B  2026 01 25.0785  3.825961  0.462621   83.4900    1.3327   24.0548  20190228  12.0  2.0  P/2005 SB216 (LONEOS)                                    MPC_75706
    PK05T020  2020 04  8.7307  2.241969  0.417143   58.9644  260.1668    8.2936  20190228  14.5  4.0  P/2005 T2 (Christensen)                                  MPC_55717
    PK05T030  2026 09 15.9201  6.257801  0.172399    7.9568   27.8933    6.2362  20190228   9.0  4.0  P/2005 T3 (Read)                                         MPC_73461
    PK05T040  2005 09 28.9108  0.648615  0.930684   41.3486   25.4399  160.0928  20190228  15.0  4.0  P/2005 T4 (SWAN)                                         MPC_73461
    PK05T050  2025 06 17.7333  3.276590  0.550801  304.4745   57.0261   21.3362  20190228  11.0  4.0  P/2005 T5 (Broughton)                                    MPC_75706
    PK05W030  2021 09 20.6598  2.899586  0.542933  200.3122  210.2204   16.4103  20190228  12.0  4.0  P/2005 W3 (Kowalski)                                     MPC_56954
    PK05X54A  2021 01 29.2151  1.752180  0.710336   15.1669  143.6995   17.1205  20190228  14.0  4.0  P/2005 XA54 (LONEOS-Hill)                                MPC_75706
    PK05Y020  2020 10 22.4003  3.379475  0.467160  194.2968   94.5177   19.1096  20190228   9.0  4.0  P/2005 Y2 (McNaught)                                     MPC_75706
    PK06F010  2018 03 15.9074  4.108553  0.120553  186.2770  124.7419   21.2776  20190228   8.0  4.0  P/2006 F1 (Kowalski)                                     MPC_75707
    PK06F040  2019 08  2.8160  2.333880  0.338035   31.1729  184.0320   12.3885  20190228  15.0  4.0  P/2006 F4 (Spacewatch)                                   MPC_56954
    PK06H010  2019 12  7.6346  2.421677  0.581055  309.2565  359.9722   12.8074  20190228  12.5  4.0  P/2006 H1 (McNaught)                                     MPC_58118
    PK06H30R  2028 10 18.5838  1.237764  0.841518  117.3897  309.8267   31.8553  20190228  11.0  4.0  P/2006 HR30 (Siding Spring)                              MPC_75707
    CK06K040  2007 11 25.1237  3.200391  0.997173  233.6871  116.6996  111.5249  20190228   6.0  4.0  C/2006 K4 (NEAT)                                         MPC_73914
    CK06O02F  2008 09  9.6490  2.450322  1.001506   95.6893  318.6419   30.1637  20190228   5.5  4.0  C/2006 OF2 (Broughton)                                   MPC_82313
    CK06Q010  2008 07  3.4058  2.780672  0.999010  344.5536  199.3904   59.1096  20190228   5.0  4.0  C/2006 Q1 (McNaught)                                     MPC112388
    PK06R010  2020 01  4.8634  1.663431  0.704832  249.2799  218.8356  160.0703  20190228  16.0  4.0  P/2006 R1 (Siding Spring)                                MPC_73461
    PK06S010  2019 10 25.4490  1.418913  0.599653  133.6121  207.9031   12.3267  20190228  17.5  4.0  P/2006 S1 (Christensen)                                  MPC_69905
    CK06S030  2012 04 12.7086  5.153076  1.000107  140.1653   38.3534  166.0229  20190228   2.0  4.0  C/2006 S3 (LONEOS)                                       MPC105235
    PK06S040  2022 01 15.9630  3.104435  0.506861  305.2709   36.1113   39.5655  20190228  11.0  4.0  P/2006 S4 (Christensen)                                  MPC_75707
    CK06S050  2007 12  2.6744  2.656932  0.972387  182.2412  281.5564   10.0983  20190228   8.0  4.0  C/2006 S5 (Hill)                                         MPC_60465
    CK06U060  2008 05 30.3885  2.519845  0.998772  276.7111  180.1323   84.8050  20190228   8.0  4.0  C/2006 U6 (Spacewatch)                                   MPC_66204
    CK06V010  2007 11 28.3379  2.656112  0.983397  253.1921  335.4232   31.3377  20190228   8.0  4.0  C/2006 V1 (Catalina)                                     MPC_62580
    PK06W010  2020 04  3.6775  1.700800  0.707701  232.2463  152.3140   18.5393  20190228  12.0  4.0  P/2006 W1 (Gibbs)                                        MPC105235
